[{"OBJECT_NAME":"STARLINK-1231","OBJECT_ID":"2020-012AL","EPOCH":"2026-03-09T22:37:47.053344","MEAN_MOTION":15.21109103,"ECCENTRICITY":0.00044424,"INCLINATION":53.0512,"RA_OF_ASC_NODE":14.6305,"ARG_OF_PERICENTER":85.7688,"MEAN_ANOMALY":274.3815,"EPHEMERIS_TYPE":0,"CLASSIFICATION_TYPE":"U","NORAD_CAT_ID":45212,"ELEMENT_SET_NO":999,"REV_AT_EPOCH":33526,"BSTAR":0.0021253625,"MEAN_MOTION_DOT":0.00047876,"MEAN_MOTION_DDOT":0},{"OBJECT_NAME":"SITRO-AIS 7 (FARTUSHNIY)","OBJECT_ID":"2023-091AE","EPOCH":"2026-03-09T23:03:57.724992","MEAN_MOTION":15.24163112,"ECCENTRICITY":0.00140938,"INCLINATION":97.518,"RA_OF_ASC_NODE":131.502,"ARG_OF_PERICENTER":95.9262,"MEAN_ANOMALY":264.3582,"EPHEMERIS_TYPE":0,"CLASSIFICATION_TYPE":"U","NORAD_CAT_ID":57194,"ELEMENT_SET_NO":999,"REV_AT_EPOCH":14915,"BSTAR":0.00031715122,"MEAN_MOTION_DOT":7.668e-5,"MEAN_MOTION_DDOT":0}]
